{
    "links": {
        "self": "http://www.neowsapp.com/rest/v1/neo/3484927?api_key=iIulBulltgU6a56xZRHN4H3l9WmuAYTsLGpBGhQ2"
    },
    "id": "3484927",
    "neo_reference_id": "3484927",
    "name": "(2010 AG3)",
    "designation": "2010 AG3",
    "nasa_jpl_url": "http://ssd.jpl.nasa.gov/sbdb.cgi?sstr=3484927",
    "absolute_magnitude_h": 27.5,
    "estimated_diameter": {
        "kilometers": {
            "estimated_diameter_min": 0.008405334,
            "estimated_diameter_max": 0.0187948982
        },
        "meters": {
            "estimated_diameter_min": 8.4053340207,
            "estimated_diameter_max": 18.7948982439
        },
        "miles": {
            "estimated_diameter_min": 0.0052228308,
            "estimated_diameter_max": 0.0116786047
        },
        "feet": {
            "estimated_diameter_min": 27.5765560686,
            "estimated_diameter_max": 61.6630539546
        }
    },
    "is_potentially_hazardous_asteroid": false,
    "close_approach_data": [
        {
            "close_approach_date": "1967-11-04",
            "close_approach_date_full": "1967-Nov-04 02:21",
            "epoch_date_close_approach": -68161140000,
            "relative_velocity": {
                "kilometers_per_second": "5.8106265557",
                "kilometers_per_hour": "20918.2556005553",
                "miles_per_hour": "12997.7905424673"
            },
            "miss_distance": {
                "astronomical": "0.4375652853",
                "lunar": "170.2128959817",
                "kilometers": "65458834.666822311",
                "miles": "40674233.7726814518"
            },
            "orbiting_body": "Earth"
        },
        {
            "close_approach_date": "1968-04-11",
            "close_approach_date_full": "1968-Apr-11 08:11",
            "epoch_date_close_approach": -54402540000,
            "relative_velocity": {
                "kilometers_per_second": "16.1533421929",
                "kilometers_per_hour": "58152.031894283",
                "miles_per_hour": "36133.4111512005"
            },
            "miss_distance": {
                "astronomical": "0.3962035991",
                "lunar": "154.1232000499",
                "kilometers": "59271214.511693917",
                "miles": "36829424.8944413746"
            },
            "orbiting_body": "Earth"
        },
        {
            "close_approach_date": "2001-12-16",
            "close_approach_date_full": "2001-Dec-16 18:42",
            "epoch_date_close_approach": 1008528120000,
            "relative_velocity": {
                "kilometers_per_second": "16.4227459726",
                "kilometers_per_hour": "59121.8855014568",
                "miles_per_hour": "36736.0404661691"
            },
            "miss_distance": {
                "astronomical": "0.39897846",
                "lunar": "155.20262094",
                "kilometers": "59686327.7918802",
                "miles": "37087364.32593876"
            },
            "orbiting_body": "Earth"
        },
        {
            "close_approach_date": "2010-01-19",
            "close_approach_date_full": "2010-Jan-19 10:49",
            "epoch_date_close_approach": 1263898140000,
            "relative_velocity": {
                "kilometers_per_second": "4.7546781893",
                "kilometers_per_hour": "17116.8414815078",
                "miles_per_hour": "10635.7396416624"
            },
            "miss_distance": {
                "astronomical": "0.0228748272",
                "lunar": "8.8983077808",
                "kilometers": "3422025.425738064",
                "miles": "2126347.9994867232"
            },
            "orbiting_body": "Earth"
        }
    ],
    "orbital_data": {
        "orbit_id": "8",
        "orbit_determination_date": "2017-04-06 08:58:38",
        "first_observation_date": "2010-01-08",
        "last_observation_date": "2010-01-17",
        "data_arc_in_days": 9,
        "observations_used": 33,
        "orbit_uncertainty": "7",
        "minimum_orbit_intersection": ".0153022",
        "jupiter_tisserand_invariant": "4.776",
        "epoch_osculation": "2459000.5",
        "eccentricity": ".2811806965679467",
        "semi_major_axis": "1.372329078194034",
        "inclination": "2.453843223161454",
        "ascending_node_longitude": "109.3449385075146",
        "orbital_period": "587.1997004824802",
        "perihelion_distance": ".9864566320669872",
        "perihelion_argument": "31.69980095128358",
        "aphelion_distance": "1.75820152432108",
        "perihelion_time": "2458749.146304283322",
        "mean_anomaly": "154.0997558133188",
        "mean_motion": ".6130793317915546",
        "equinox": "J2000",
        "orbit_class": {
            "orbit_class_type": "APO",
            "orbit_class_description": "Near-Earth asteroid orbits which cross the Earth’s orbit similar to that of 1862 Apollo",
            "orbit_class_range": "a (semi-major axis) > 1.0 AU; q (perihelion) < 1.017 AU"
        }
    },
    "is_sentry_object": false
}